{"spkid": "50428367", "covariance": {"labels": ["e", "q", "tp", "node", "peri", "i"], "elements": [{"sigma": 1.43979328062106e-07, "name": "e", "units": null, "title": "eccentricity", "value": ".1917035651587964", "label": "e"}, {"units": "au", "title": "perihelion distance", "value": "1.008532458706157", "sigma": 1.92676387016025e-07, "name": "q", "label": "q"}, {"label": "tp", "units": "TDB", "title": "time of perihelion passage", "value": "2458795.258396196881", "name": "tp", "sigma": 0.000235528940709862}, {"value": "187.2409016671411", "title": "longitude of the ascending node", "units": "deg", "sigma": 1.89203144901726e-05, "name": "om", "label": "node"}, {"label": "peri", "sigma": 0.000142675409471879, "name": "w", "units": "deg", "title": "argument of perihelion", "value": "164.3469843843901"}, {"label": "i", "name": "i", "sigma": 0.000167612559445638, "units": "deg", "title": "inclination", "value": "28.6932397134041"}], "data": [["2.073004690921568E-14", "-2.769376021508518E-14", "-1.90807418447965E-11", "-1.170858302267796E-12", "-1.063769538920463E-11", "-1.31468885919411E-11"], ["-2.769376021508518E-14", "3.712419011354904E-14", "2.763688518237388E-11", "1.497950047981246E-12", "1.551587057500423E-11", "1.679767913649068E-11"], ["-1.90807418447965E-11", "2.763688518237388E-11", "5.547388191190988E-8", "-2.800957405021082E-10", "3.331906161106004E-8", "-3.388755136939137E-9"], ["-1.170858302267796E-12", "1.497950047981246E-12", "-2.800957405021082E-10", "3.579783004070367E-10", "-4.486860472157839E-10", "2.887869033368671E-9"], ["-1.063769538920463E-11", "1.551587057500423E-11", "3.331906161106004E-8", "-4.486860472157839E-10", "2.035627246796841E-8", "-4.211482604361434E-9"], ["-1.31468885919411E-11", "1.679767913649068E-11", "-3.388755136939137E-9", "2.887869033368671E-9", "-4.211482604361434E-9", "2.809397008391752E-8"]], "epoch": "2458884.5"}, "elements": [{"label": "e", "sigma": "1.4451E-7", "name": "e", "title": "eccentricity", "value": ".1917291364391247", "units": null}, {"label": "a", "value": "1.24761969867743", "title": "semi-major axis", "units": "au", "sigma": "2.0446E-8", "name": "a"}, {"units": "au", "title": "perihelion distance", "value": "1.008414651245565", "name": "q", "sigma": "1.932E-7", "label": "q"}, {"label": "i", "name": "i", "sigma": ".00016762", "title": "inclination; angle with respect to x-y ecliptic plane", "value": "28.69553392763777", "units": "deg"}, {"label": "node", "name": "om", "sigma": "1.8987E-5", "title": "longitude of the ascending node", "value": "187.2186207618829", "units": "deg"}, {"name": "w", "sigma": ".00014263", "units": "deg", "title": "argument of perihelion", "value": "164.3563610402717", "label": "peri"}, {"sigma": ".00020741", "name": "ma", "units": "deg", "title": "mean anomaly", "value": "261.0788228694393", "label": "M"}, {"sigma": ".00029658", "name": "tp", "units": "TDB", "value": "2461340.364834770984", "title": "time of perihelion passage", "label": "tp"}, {"label": "period", "sigma": "1.2512E-5", "name": "per", "units": "d", "title": "sidereal orbital period", "value": "509.0046638961671"}, {"name": "n", "sigma": "1.7386E-8", "title": "mean motion", "value": ".7072626746568222", "units": "deg/d", "label": "n"}, {"label": "Q", "title": "aphelion distance", "value": "1.486824746109294", "units": "au", "name": "ad", "sigma": "2.4366E-8"}], "epoch": "2461200.5"}